ONEWEB-0593             
1 54659U 22166T   24064.02550281 -.00000087  00000+0 -24194-3 0  9994
2 54659  87.9228  50.2037 0002115  92.5127 267.6249 13.21828242 61689
ONEWEB-0594             
1 54660U 22166U   24063.89304884  .00000041  00000+0  68364-4 0  9992
2 54660  87.9231  50.2266 0002009  80.7526 279.3835 13.21825888 61216
ONEWEB-0595             
1 54661U 22166V   24064.02236125 -.00000096  00000+0 -26493-3 0  9999
2 54661  87.9229  50.1905 0001638  83.6224 276.5096 13.21826033 61678
ONEWEB-0596             
1 54662U 22166W   24063.46567917  .00000068  00000+0  13393-3 0  9995
2 54662  87.9231  50.3050 0001984  97.9079 262.2280 13.21825164 61137
ONEWEB-0597             
1 54663U 22166X   24064.20370600  .00000039  00000+0  63902-4 0  9990
2 54663  87.9232  50.1591 0002307  90.7910 269.3489 13.21825887 61706
ONEWEB-0600             
1 54664U 22166Y   24063.88357686 -.00000034  00000+0 -11465-3 0  9996
2 54664  87.9226  50.2694 0002204  88.3120 271.8267 13.21826842 61161
ONEWEB-0601             
1 54665U 22166Z   24063.49721354  .00000035  00000+0  53816-4 0  9997
2 54665  87.9232  50.3027 0002273  99.3370 260.8021 13.21827928 61303
ONEWEB-0602             
1 54666U 22166AA  24063.91670519 -.00000014  00000+0 -65466-4 0  9994
2 54666  87.9232  50.2241 0002256  91.1871 268.9522 13.21825648 61209
